KUIPER-00016            
1 63732U 25088J   25253.54039655  .00006210  00000+0  84177-3 0  9996
2 63732  51.8998 188.2114 0010708 189.4312 170.6451 14.79962550 20657
KUIPER-00018            
1 63733U 25088K   25253.18130181 -.00027388  00000+0 -25390-2 0  9995
2 63733  51.8915 178.3355 0012107 213.2848 146.7359 14.93783563 20763
KUIPER-00019            
1 63734U 25088L   25253.83335648 -.00024373  00000+0 -26280-2 0  9993
2 63734  51.8939 174.4735 0007845 220.4505 144.3083 14.87742160  4820
KUIPER-00020            
1 63735U 25088M   25253.74784902  .00001153  00000+0  18112-3 0  9990
2 63735  51.9014 178.7198 0007721 200.4352 159.6302 14.79766429 21015
KUIPER-00021            
1 63736U 25088N   25253.07519244  .00002511  00000+0  35459-3 0  9994
2 63736  51.9005 182.7394 0006373 201.0875 158.9826 14.80381900 20738
KUIPER-00023            
1 63737U 25088P   25253.20994309  .00001578  00000+0  23617-3 0  9994
2 63737  51.9022 183.6161 0010222 217.0476 142.9782 14.79910736 21033
KUIPER-00024            
1 63738U 25088Q   25253.80078458 -.00020300  00000+0 -13731-2 0  9990
2 63738  51.8871 169.6834 0002865 230.8683 129.2036 15.05685064 21407
KUIPER-00025            
1 63739U 25088R   25253.48332561 -.00036130  00000+0 -47116-2 0  9995
2 63739  51.9007 178.4703 0008999 199.1560 160.9065 14.80112681 21112
